STARLINK-6362           
1 57350U 23099Y   26012.80061051  .00000203  00000+0  30084-4 0  9998
2 57350  43.0023 180.1289 0001341 262.8243  97.2446 15.02534259137851
STARLINK-6331           
1 57351U 23099Z   26012.92429657  .00003394  00000+0  26614-3 0  9999
2 57351  43.0022 191.5033 0001412 263.1543  96.9138 15.02548598137732
STARLINK-6297           
1 57352U 23099AA  26012.86043108 -.00000361  00000+0 -11662-4 0  9997
2 57352  43.0025 179.7163 0001278 276.3778  83.6919 15.02534763137867
STARLINK-6324           
1 57353U 23099AB  26012.85561752  .00000037  00000+0  17784-4 0  9996
2 57353  43.0020 191.8468 0001265 266.8130  93.2568 15.02533842137727
STARLINK-6293           
1 57354U 23099AC  26012.85154863 -.00000607  00000+0 -29869-4 0  9990
2 57354  43.0029 179.6493 0001464 272.0420  88.0255 15.02518186137865
STARLINK-6276           
1 57355U 23099AD  26012.79728197  .00004845  00000+0  37379-3 0  9991
2 57355  43.0033 180.1031 0000865 287.2503  72.8245 15.02501130137850
STARLINK-6355           
1 57356U 23099AE  26012.45159500 -.00000992  00000+0 -58383-4 0  9991
2 57356  43.0040 181.8086 0000786 241.3886 118.6877 15.02522908137805
STARLINK-5600           
1 57357U 23099AF  26012.85820937  .00000005  00000+0  15407-4 0  9998
2 57357  43.0032 179.6993 0001204 261.5096  98.5610 15.02537563137862
STARLINK-6299           
1 57358U 23099AG  26012.77841770  .00000829  00000+0  76415-4 0  9998
2 57358  43.0021 179.9558 0001198 265.3853  94.6852 15.02532305138591
STARLINK-6347           
1 57359U 23099AH  26012.86154076 -.00000293  00000+0 -65829-5 0  9990
2 57359  43.0029 179.7229 0001284 264.9361  95.1335 15.02534071137861
STARLINK-6348           
1 57360U 23099AJ  26012.83824670  .00001335  00000+0  11385-3 0  9995
2 57360  43.0026 179.5469 0001265 271.0505  89.0192 15.02540032137869
STARLINK-6340           
1 57361U 23099AK  26012.84711148  .00000174  00000+0  27915-4 0  9999
2 57361  43.0024 179.6144 0001277 260.4039  99.6659 15.02539489137865
STARLINK-6343           
1 57362U 23099AL  26012.83490348  .00000322  00000+0  38865-4 0  9996
2 57362  43.0019 179.5217 0001106 256.2231 103.8488 15.02547525137866
STARLINK-6356           
1 57363U 23099AM  26012.84156132 -.00000233  00000+0 -21538-5 0  9991
2 57363  43.0037 179.5735 0001254 267.6300  92.4398 15.02534296137863
STARLINK-6338           
1 57364U 23099AN  26012.83379342 -.00000230  00000+0 -19461-5 0  9990
2 57364  43.0023 179.5129 0001269 268.8793  91.1904 15.02532886137863
STARLINK-5007           
1 57365U 23099AP  26012.75732247 -.00000080  00000+0  91739-5 0  9999
2 57365  43.0026 179.7936 0001265 268.1253  91.9444 15.02533291137852
