[{"OBJECT_NAME":"STARLINK-6362","OBJECT_ID":"2023-099Y","EPOCH":"2026-01-12T19:12:52.748064","MEAN_MOTION":15.02534259,"ECCENTRICITY":0.00013419,"INCLINATION":43.0023,"RA_OF_ASC_NODE":180.1289,"ARG_OF_PERICENTER":262.8243,"MEAN_ANOMALY":97.2446,"EPHEMERIS_TYPE":0,"CLASSIFICATION_TYPE":"U","NORAD_CAT_ID":57350,"ELEMENT_SET_NO":999,"REV_AT_EPOCH":13785,"BSTAR":3.0083889e-5,"MEAN_MOTION_DOT":2.03e-6,"MEAN_MOTION_DDOT":0},{"OBJECT_NAME":"STARLINK-6331","OBJECT_ID":"2023-099Z","EPOCH":"2026-01-12T22:10:59.223648","MEAN_MOTION":15.02548598,"ECCENTRICITY":0.00014124,"INCLINATION":43.0022,"RA_OF_ASC_NODE":191.5033,"ARG_OF_PERICENTER":263.1543,"MEAN_ANOMALY":96.9138,"EPHEMERIS_TYPE":0,"CLASSIFICATION_TYPE":"U","NORAD_CAT_ID":57351,"ELEMENT_SET_NO":999,"REV_AT_EPOCH":13773,"BSTAR":0.00026614452,"MEAN_MOTION_DOT":3.394e-5,"MEAN_MOTION_DDOT":0},{"OBJECT_NAME":"STARLINK-6297","OBJECT_ID":"2023-099AA","EPOCH":"2026-01-12T20:39:01.245312","MEAN_MOTION":15.02534763,"ECCENTRICITY":0.00012787,"INCLINATION":43.0025,"RA_OF_ASC_NODE":179.7163,"ARG_OF_PERICENTER":276.3778,"MEAN_ANOMALY":83.6919,"EPHEMERIS_TYPE":0,"CLASSIFICATION_TYPE":"U","NORAD_CAT_ID":57352,"ELEMENT_SET_NO":999,"REV_AT_EPOCH":13786,"BSTAR":-1.1662078e-5,"MEAN_MOTION_DOT":-3.61e-6,"MEAN_MOTION_DDOT":0},{"OBJECT_NAME":"STARLINK-6324","OBJECT_ID":"2023-099AB","EPOCH":"2026-01-12T20:32:05.353728","MEAN_MOTION":15.02533842,"ECCENTRICITY":0.00012651,"INCLINATION":43.002,"RA_OF_ASC_NODE":191.8468,"ARG_OF_PERICENTER":266.813,"MEAN_ANOMALY":93.2568,"EPHEMERIS_TYPE":0,"CLASSIFICATION_TYPE":"U","NORAD_CAT_ID":57353,"ELEMENT_SET_NO":999,"REV_AT_EPOCH":13772,"BSTAR":1.7783535e-5,"MEAN_MOTION_DOT":3.7e-7,"MEAN_MOTION_DDOT":0},{"OBJECT_NAME":"STARLINK-6293","OBJECT_ID":"2023-099AC","EPOCH":"2026-01-12T20:26:13.801632","MEAN_MOTION":15.02518186,"ECCENTRICITY":0.00014644,"INCLINATION":43.0029,"RA_OF_ASC_NODE":179.6493,"ARG_OF_PERICENTER":272.042,"MEAN_ANOMALY":88.0255,"EPHEMERIS_TYPE":0,"CLASSIFICATION_TYPE":"U","NORAD_CAT_ID":57354,"ELEMENT_SET_NO":999,"REV_AT_EPOCH":13786,"BSTAR":-2.9869172e-5,"MEAN_MOTION_DOT":-6.07e-6,"MEAN_MOTION_DDOT":0},{"OBJECT_NAME":"STARLINK-6276","OBJECT_ID":"2023-099AD","EPOCH":"2026-01-12T19:08:05.162208","MEAN_MOTION":15.0250113,"ECCENTRICITY":8.658e-5,"INCLINATION":43.0033,"RA_OF_ASC_NODE":180.1031,"ARG_OF_PERICENTER":287.2503,"MEAN_ANOMALY":72.8245,"EPHEMERIS_TYPE":0,"CLASSIFICATION_TYPE":"U","NORAD_CAT_ID":57355,"ELEMENT_SET_NO":999,"REV_AT_EPOCH":13785,"BSTAR":0.00037379356,"MEAN_MOTION_DOT":4.845e-5,"MEAN_MOTION_DDOT":0},{"OBJECT_NAME":"STARLINK-6355","OBJECT_ID":"2023-099AE","EPOCH":"2026-01-12T10:50:17.808000","MEAN_MOTION":15.02522908,"ECCENTRICITY":7.861e-5,"INCLINATION":43.004,"RA_OF_ASC_NODE":181.8086,"ARG_OF_PERICENTER":241.3886,"MEAN_ANOMALY":118.6877,"EPHEMERIS_TYPE":0,"CLASSIFICATION_TYPE":"U","NORAD_CAT_ID":57356,"ELEMENT_SET_NO":999,"REV_AT_EPOCH":13780,"BSTAR":-5.8382753e-5,"MEAN_MOTION_DOT":-9.92e-6,"MEAN_MOTION_DDOT":0},{"OBJECT_NAME":"STARLINK-5600","OBJECT_ID":"2023-099AF","EPOCH":"2026-01-12T20:35:49.289568","MEAN_MOTION":15.02537563,"ECCENTRICITY":0.00012047,"INCLINATION":43.0032,"RA_OF_ASC_NODE":179.6993,"ARG_OF_PERICENTER":261.5096,"MEAN_ANOMALY":98.561,"EPHEMERIS_TYPE":0,"CLASSIFICATION_TYPE":"U","NORAD_CAT_ID":57357,"ELEMENT_SET_NO":999,"REV_AT_EPOCH":13786,"BSTAR":1.5407212e-5,"MEAN_MOTION_DOT":5.0e-8,"MEAN_MOTION_DDOT":0},{"OBJECT_NAME":"STARLINK-6299","OBJECT_ID":"2023-099AG","EPOCH":"2026-01-12T18:40:55.289280","MEAN_MOTION":15.02532305,"ECCENTRICITY":0.00011987,"INCLINATION":43.0021,"RA_OF_ASC_NODE":179.9558,"ARG_OF_PERICENTER":265.3853,"MEAN_ANOMALY":94.6852,"EPHEMERIS_TYPE":0,"CLASSIFICATION_TYPE":"U","NORAD_CAT_ID":57358,"ELEMENT_SET_NO":999,"REV_AT_EPOCH":13859,"BSTAR":7.6414712e-5,"MEAN_MOTION_DOT":8.29e-6,"MEAN_MOTION_DDOT":0},{"OBJECT_NAME":"STARLINK-6347","OBJECT_ID":"2023-099AH","EPOCH":"2026-01-12T20:40:37.121664","MEAN_MOTION":15.02534071,"ECCENTRICITY":0.00012841,"INCLINATION":43.0029,"RA_OF_ASC_NODE":179.7229,"ARG_OF_PERICENTER":264.9361,"MEAN_ANOMALY":95.1335,"EPHEMERIS_TYPE":0,"CLASSIFICATION_TYPE":"U","NORAD_CAT_ID":57359,"ELEMENT_SET_NO":999,"REV_AT_EPOCH":13786,"BSTAR":-6.582948e-6,"MEAN_MOTION_DOT":-2.93e-6,"MEAN_MOTION_DDOT":0},{"OBJECT_NAME":"STARLINK-6348","OBJECT_ID":"2023-099AJ","EPOCH":"2026-01-12T20:07:04.514880","MEAN_MOTION":15.02540032,"ECCENTRICITY":0.00012654,"INCLINATION":43.0026,"RA_OF_ASC_NODE":179.5469,"ARG_OF_PERICENTER":271.0505,"MEAN_ANOMALY":89.0192,"EPHEMERIS_TYPE":0,"CLASSIFICATION_TYPE":"U","NORAD_CAT_ID":57360,"ELEMENT_SET_NO":999,"REV_AT_EPOCH":13786,"BSTAR":0.00011385382,"MEAN_MOTION_DOT":1.335e-5,"MEAN_MOTION_DDOT":0},{"OBJECT_NAME":"STARLINK-6340","OBJECT_ID":"2023-099AK","EPOCH":"2026-01-12T20:19:50.431872","MEAN_MOTION":15.02539489,"ECCENTRICITY":0.00012773,"INCLINATION":43.0024,"RA_OF_ASC_NODE":179.6144,"ARG_OF_PERICENTER":260.4039,"MEAN_ANOMALY":99.6659,"EPHEMERIS_TYPE":0,"CLASSIFICATION_TYPE":"U","NORAD_CAT_ID":57361,"ELEMENT_SET_NO":999,"REV_AT_EPOCH":13786,"BSTAR":2.7915287e-5,"MEAN_MOTION_DOT":1.74e-6,"MEAN_MOTION_DDOT":0},{"OBJECT_NAME":"STARLINK-6343","OBJECT_ID":"2023-099AL","EPOCH":"2026-01-12T20:02:15.660672","MEAN_MOTION":15.02547525,"ECCENTRICITY":0.00011062,"INCLINATION":43.0019,"RA_OF_ASC_NODE":179.5217,"ARG_OF_PERICENTER":256.2231,"MEAN_ANOMALY":103.8488,"EPHEMERIS_TYPE":0,"CLASSIFICATION_TYPE":"U","NORAD_CAT_ID":57362,"ELEMENT_SET_NO":999,"REV_AT_EPOCH":13786,"BSTAR":3.886511e-5,"MEAN_MOTION_DOT":3.22e-6,"MEAN_MOTION_DDOT":0},{"OBJECT_NAME":"STARLINK-6356","OBJECT_ID":"2023-099AM","EPOCH":"2026-01-12T20:11:50.898048","MEAN_MOTION":15.02534296,"ECCENTRICITY":0.0001254,"INCLINATION":43.0037,"RA_OF_ASC_NODE":179.5735,"ARG_OF_PERICENTER":267.63,"MEAN_ANOMALY":92.4398,"EPHEMERIS_TYPE":0,"CLASSIFICATION_TYPE":"U","NORAD_CAT_ID":57363,"ELEMENT_SET_NO":999,"REV_AT_EPOCH":13786,"BSTAR":-2.153794e-6,"MEAN_MOTION_DOT":-2.33e-6,"MEAN_MOTION_DDOT":0},{"OBJECT_NAME":"STARLINK-6338","OBJECT_ID":"2023-099AN","EPOCH":"2026-01-12T20:00:39.751488","MEAN_MOTION":15.02532886,"ECCENTRICITY":0.00012692,"INCLINATION":43.0023,"RA_OF_ASC_NODE":179.5129,"ARG_OF_PERICENTER":268.8793,"MEAN_ANOMALY":91.1904,"EPHEMERIS_TYPE":0,"CLASSIFICATION_TYPE":"U","NORAD_CAT_ID":57364,"ELEMENT_SET_NO":999,"REV_AT_EPOCH":13786,"BSTAR":-1.946138e-6,"MEAN_MOTION_DOT":-2.3e-6,"MEAN_MOTION_DDOT":0},{"OBJECT_NAME":"STARLINK-5007","OBJECT_ID":"2023-099AP","EPOCH":"2026-01-12T18:10:32.661408","MEAN_MOTION":15.02533291,"ECCENTRICITY":0.0001265,"INCLINATION":43.0026,"RA_OF_ASC_NODE":179.7936,"ARG_OF_PERICENTER":268.1253,"MEAN_ANOMALY":91.9444,"EPHEMERIS_TYPE":0,"CLASSIFICATION_TYPE":"U","NORAD_CAT_ID":57365,"ELEMENT_SET_NO":999,"REV_AT_EPOCH":13785,"BSTAR":9.173856e-6,"MEAN_MOTION_DOT":-8.0e-7,"MEAN_MOTION_DDOT":0}]
